[{"OBJECT_NAME":"SEEDS II (CO-66)","OBJECT_ID":"2008-021J","EPOCH":"2026-03-09T22:06:22.421376","MEAN_MOTION":15.29097236,"ECCENTRICITY":0.00014475,"INCLINATION":97.7519,"RA_OF_ASC_NODE":62.3611,"ARG_OF_PERICENTER":359.2618,"MEAN_ANOMALY":0.8619,"EPHEMERIS_TYPE":0,"CLASSIFICATION_TYPE":"U","NORAD_CAT_ID":32791,"ELEMENT_SET_NO":999,"REV_AT_EPOCH":97210,"BSTAR":0.00084213052,"MEAN_MOTION_DOT":0.00023758,"MEAN_MOTION_DDOT":0},{"OBJECT_NAME":"STARLINK-31923","OBJECT_ID":"2024-150T","EPOCH":"2026-03-09T21:57:14.995296","MEAN_MOTION":15.3018824,"ECCENTRICITY":0.00012903,"INCLINATION":53.1613,"RA_OF_ASC_NODE":306.1362,"ARG_OF_PERICENTER":107.2908,"MEAN_ANOMALY":252.8234,"EPHEMERIS_TYPE":0,"CLASSIFICATION_TYPE":"U","NORAD_CAT_ID":60600,"ELEMENT_SET_NO":999,"REV_AT_EPOCH":8807,"BSTAR":5.0662897e-5,"MEAN_MOTION_DOT":1.141e-5,"MEAN_MOTION_DDOT":0}]
