SEEDS II (CO-66)        
1 32791U 08021J   26068.92109284  .00023758  00000+0  84213-3 0  9995
2 32791  97.7519  62.3611 0001448 359.2618   0.8619 15.29097235972108
STARLINK-31923          
1 60600U 24150T   26068.91475689  .00001141  00000+0  50663-4 0  9995
2 60600  53.1613 306.1362 0001290 107.2908 252.8234 15.30188239 88072
